FENGYUN 1C DEB          
1 38158U 99025ERF 17344.37107249  .00000151  00000-0  19525-3 0  9994
2 38158  99.5708  34.3530 0223837  93.0341 269.6439 13.66945437412552
